{"type":"FeatureCollection","features":[{"type":"Feature","id":1,"geometry":{"type":"Point","coordinates":[-77.040987881400966,38.995964317643214]},"properties":{"CREATION_DT":1297918800000,"NARRATIVE":" ","LOCATION_DESCRIPTION":"150 feet west of the exit from Chevy Chase Crest Apts and 20 feet south of the 1880 block of East-West Highway (MD410) in Silver Spring, MD.\r\n","STONE_NUM":"NORTH","PIC_LINK":"http://octo.dc.gov/sites/default/files/dc/sites/octo/featured_content/images/NORTH_2.jpg","Z":79.040999999999997,"Z_FT":259.31999999999999,"GIS_ID":"BoundaryStonesPt_1","XCOORD":396449.53499999997,"YCOORD":147558.13699999999,"LATITUDE":38.995956509999999,"LONGITUDE":-77.040985579999997,"OBJECTID":1,"GLOBALID":"{33BFADE0-B15B-4EFA-A172-C1EF50877210}","CREATOR":null,"CREATED":null,"EDITOR":"DCGIS","EDITED":1514588688000}},{"type":"Feature","id":2,"geometry":{"type":"Point","coordinates":[-77.054131161137605,38.985706349714512]},"properties":{"CREATION_DT":1298005200000,"NARRATIVE":" ","LOCATION_DESCRIPTION":"5 feet East of a driveway at 2701 Daniel P1., 165 ft. NE from the midline of the intersection of Oregon Ave. and Daniel Pl., NW.","STONE_NUM":"NW9","PIC_LINK":"http://octo.dc.gov/sites/default/files/dc/sites/octo/featured_content/images/NW9_2.jpg","Z":75.173000000000002,"Z_FT":246.63,"GIS_ID":"BoundaryStonesPt_2","XCOORD":395310.29499999998,"YCOORD":146419.99400000001,"LATITUDE":38.985698550000002,"LONGITUDE":-77.054128860000006,"OBJECTID":2,"GLOBALID":"{0FC0F58B-3453-4231-B438-82909EB229D5}","CREATOR":null,"CREATED":null,"EDITOR":"DCGIS","EDITED":1514588688000}},{"type":"Feature","id":3,"geometry":{"type":"Point","coordinates":[-77.02774566095205,38.985628142432816]},"properties":{"CREATION_DT":1297918800000,"NARRATIVE":"SURVEYED CENTER OF THE PLAQUE","LOCATION_DESCRIPTION":"A bronze plaque exists on the sidewalk in front of convenience store at 7847 Eastern Ave in Silver Spring, MD.","STONE_NUM":"NE1","PIC_LINK":"http://octo.dc.gov/sites/default/files/dc/sites/octo/featured_content/images/NE1_3.jpg","Z":108.32900000000001,"Z_FT":355.41000000000003,"GIS_ID":"BoundaryStonesPt_3","XCOORD":397596.32199999999,"YCOORD":146410.28700000001,"LATITUDE":38.985620339999997,"LONGITUDE":-77.027743360000002,"OBJECTID":3,"GLOBALID":"{49011B83-3FAD-46D4-A525-5910EBD60AD6}","CREATOR":null,"CREATED":null,"EDITOR":"DCGIS","EDITED":1514588688000}},{"type":"Feature","id":4,"geometry":{"type":"Point","coordinates":[-77.067269240119444,38.97545014552221]},"properties":{"CREATION_DT":1298005200000,"NARRATIVE":" ","LOCATION_DESCRIPTION":"Center of a front lawn at 6422 Western Ave., NW.","STONE_NUM":"NW8","PIC_LINK":"http://octo.dc.gov/sites/default/files/dc/sites/octo/featured_content/images/NW8_2.jpg","Z":100.078,"Z_FT":328.34000000000003,"GIS_ID":"BoundaryStonesPt_4","XCOORD":394171.17790000001,"YCOORD":145282.21340000001,"LATITUDE":38.975442350000002,"LONGITUDE":-77.067266930000002,"OBJECTID":4,"GLOBALID":"{6972EA74-9EC3-4394-9848-6246FB6136C1}","CREATOR":null,"CREATED":null,"EDITOR":"DCGIS","EDITED":1514588688000}},{"type":"Feature","id":5,"geometry":{"type":"Point","coordinates":[-77.014596607445228,38.975359069120088]},"properties":{"CREATION_DT":1297918800000,"NARRATIVE":" ","LOCATION_DESCRIPTION":"South corner of a front lawn at 6890 Maple Ave, NE","STONE_NUM":"NE2","PIC_LINK":"http://octo.dc.gov/sites/default/files/dc/sites/octo/featured_content/images/NE2_2.jpg","Z":85.408000000000001,"Z_FT":280.20999999999998,"GIS_ID":"BoundaryStonesPt_5","XCOORD":398735.3701,"YCOORD":145270.05609999999,"LATITUDE":38.975351269999997,"LONGITUDE":-77.014594310000007,"OBJECTID":5,"GLOBALID":"{2CF112A4-EB02-4A63-8B66-E978DF2EF213}","CREATOR":null,"CREATED":null,"EDITOR":"DCGIS","EDITED":1514588688000}},{"type":"Feature","id":6,"geometry":{"type":"Point","coordinates":[-77.001693118945667,38.965280405007142]},"properties":{"CREATION_DT":1297918800000,"NARRATIVE":" ","LOCATION_DESCRIPTION":"About 140 feet northwest of intersection of Chillum Rd and Eastern Ave, NE","STONE_NUM":"NE3","PIC_LINK":"http://octo.dc.gov/sites/default/files/dc/sites/octo/featured_content/images/NE3_2.jpg","Z":56.399999999999999,"Z_FT":185.03999999999999,"GIS_ID":"BoundaryStonesPt_6","XCOORD":399853.46500000003,"YCOORD":144151.12890000001,"LATITUDE":38.965272599999999,"LONGITUDE":-77.001690830000001,"OBJECTID":6,"GLOBALID":"{D8179C55-2BB1-4EFF-BD1E-053E7356D093}","CREATOR":null,"CREATED":null,"EDITOR":"DCGIS","EDITED":1514588688000}},{"type":"Feature","id":7,"geometry":{"type":"Point","coordinates":[-77.080405784919279,38.965190163927105]},"properties":{"CREATION_DT":1298005200000,"NARRATIVE":" ","LOCATION_DESCRIPTION":"Under a tree on the South corner of the front lawn of 5600 Western Ave., NW.","STONE_NUM":"NW7","PIC_LINK":"http://octo.dc.gov/sites/default/files/dc/sites/octo/featured_content/images/NW7_2.jpg","Z":104.242,"Z_FT":342,"GIS_ID":"BoundaryStonesPt_7","XCOORD":393031.86560000002,"YCOORD":144144.17929999999,"LATITUDE":38.965182370000001,"LONGITUDE":-77.080403469999993,"OBJECTID":7,"GLOBALID":"{FF800E4A-AC90-4934-94CD-B5821CB9EAB1}","CREATOR":null,"CREATED":null,"EDITOR":"DCGIS","EDITED":1514588688000}},{"type":"Feature","id":8,"geometry":{"type":"Point","coordinates":[-77.093549930169416,38.954916398623197]},"properties":{"CREATION_DT":1298005200000,"NARRATIVE":" ","LOCATION_DESCRIPTION":"Just West of a bus stop opposite Fesseden St., in between Park Place and Western Avenue, NW.","STONE_NUM":"NW6","PIC_LINK":"http://octo.dc.gov/sites/default/files/dc/sites/octo/featured_content/images/NW6_2.jpg","Z":84.994,"Z_FT":278.85000000000002,"GIS_ID":"BoundaryStonesPt_8","XCOORD":391891.5661,"YCOORD":143004.78169999999,"LATITUDE":38.954908600000003,"LONGITUDE":-77.093547610000002,"OBJECTID":8,"GLOBALID":"{8A6443B6-4F50-4D54-B207-21F97F868C1C}","CREATOR":null,"CREATED":null,"EDITOR":"DCGIS","EDITED":1514588688000}},{"type":"Feature","id":9,"geometry":{"type":"Point","coordinates":[-76.988209554297484,38.95474060193709]},"properties":{"CREATION_DT":1297918800000,"NARRATIVE":" ","LOCATION_DESCRIPTION":"About 75 feet northwest of the intersection of Eastern Ave and Sargent Rd, NE","STONE_NUM":"NE4","PIC_LINK":"http://octo.dc.gov/sites/default/files/dc/sites/octo/featured_content/images/NE4_2.jpg","Z":36.905000000000001,"Z_FT":121.08,"GIS_ID":"BoundaryStonesPt_9","XCOORD":401022.16149999999,"YCOORD":142981.1776,"LATITUDE":38.954732800000002,"LONGITUDE":-76.988207270000004,"OBJECTID":9,"GLOBALID":"{10BA6E3A-4DD6-4198-8409-37BB1C12E6BE}","CREATOR":null,"CREATED":null,"EDITOR":"DCGIS","EDITED":1514588688000}},{"type":"Feature","id":10,"geometry":{"type":"Point","coordinates":[-77.106683858456677,38.944646870484682]},"properties":{"CREATION_DT":1299560400000,"NARRATIVE":" ","LOCATION_DESCRIPTION":"About 300 ft. SE of a concrete culvert, 600 feet West of the Daleclaria Parkway, NW. It is atop small ridge about 100 ft. SE of a small gully.","STONE_NUM":"NW5","PIC_LINK":"http://octo.dc.gov/sites/default/files/dc/sites/octo/featured_content/images/NW5_1.jpg","Z":62.020000000000003,"Z_FT":203.48000000000002,"GIS_ID":"BoundaryStonesPt_10","XCOORD":390751.82400000002,"YCOORD":141866.02100000001,"LATITUDE":38.944639080000002,"LONGITUDE":-77.106681539999997,"OBJECTID":10,"GLOBALID":"{19F8959B-D728-4D43-8F9E-A1E1350B0A69}","CREATOR":null,"CREATED":null,"EDITOR":"DCGIS","EDITED":1514588688000}},{"type":"Feature","id":11,"geometry":{"type":"Point","coordinates":[-76.975011130596883,38.944421643516414]},"properties":{"CREATION_DT":1297918800000,"NARRATIVE":" ","LOCATION_DESCRIPTION":"Center of a front lawn at 4609 Eastern Ave., NE.","STONE_NUM":"NE5","PIC_LINK":"http://octo.dc.gov/sites/default/files/dc/sites/octo/featured_content/images/NE5_2.jpg","Z":18.526,"Z_FT":60.780000000000001,"GIS_ID":"BoundaryStonesPt_11","XCOORD":402166.4792,"YCOORD":141835.91089999999,"LATITUDE":38.944413849999997,"LONGITUDE":-76.975008849999995,"OBJECTID":11,"GLOBALID":"{92AB4003-7246-4306-A927-EBCF7A1D10D2}","CREATOR":null,"CREATED":null,"EDITOR":"DCGIS","EDITED":1514588688000}},{"type":"Feature","id":12,"geometry":{"type":"Point","coordinates":[-77.115673941116469,38.937613783757271]},"properties":{"CREATION_DT":1299214800000,"NARRATIVE":" ","LOCATION_DESCRIPTION":"The back yard of 5609 Daleclaria Place, NW. About 900 ft. N of the SW corner fence of the Daleclaria Reservoir, about 100 East of the fence. ","STONE_NUM":"NW4","PIC_LINK":"http://octo.dc.gov/sites/default/files/dc/sites/octo/featured_content/images/NW4_2.jpg","Z":44.649999999999999,"Z_FT":146.47999999999999,"GIS_ID":"BoundaryStonesPt_12","XCOORD":389971.489,"YCOORD":141086.236,"LATITUDE":38.937605990000002,"LONGITUDE":-77.115671620000001,"OBJECTID":12,"GLOBALID":"{FD22F65E-2844-4D17-B166-0D36CE147D4B}","CREATOR":null,"CREATED":null,"EDITOR":"DCGIS","EDITED":1514588688000}},{"type":"Feature","id":13,"geometry":{"type":"Point","coordinates":[-76.961332236170236,38.933722720873028]},"properties":{"CREATION_DT":1297918800000,"NARRATIVE":" ","LOCATION_DESCRIPTION":"South corner of a front lawn at 3601 Eastern Ave., NE.","STONE_NUM":"NE6","PIC_LINK":"http://octo.dc.gov/sites/default/files/dc/sites/octo/featured_content/images/NE6_2.jpg","Z":17.206,"Z_FT":56.450000000000003,"GIS_ID":"BoundaryStonesPt_13","XCOORD":403352.80320000002,"YCOORD":140648.64989999999,"LATITUDE":38.933714930000001,"LONGITUDE":-76.96132996,"OBJECTID":13,"GLOBALID":"{D0D37F5C-F112-4B51-A5FB-1A5F3B2B5313}","CREATOR":null,"CREATED":null,"EDITOR":"DCGIS","EDITED":1514588688000}},{"type":"Feature","id":14,"geometry":{"type":"Point","coordinates":[-77.13223874553475,38.924640993988824]},"properties":{"CREATION_DT":1298005200000,"NARRATIVE":" ","LOCATION_DESCRIPTION":"Center of a back yard at 4013 Tazwell St., Arl. VA.","STONE_NUM":"NW3","PIC_LINK":"http://octo.dc.gov/sites/default/files/dc/sites/octo/featured_content/images/NW3_2.jpg","Z":69.558999999999997,"Z_FT":228.21000000000001,"GIS_ID":"BoundaryStonesPt_14","XCOORD":388533.26699999999,"YCOORD":139648.09580000001,"LATITUDE":38.924633210000003,"LONGITUDE":-77.132236419999998,"OBJECTID":14,"GLOBALID":"{AFB77496-3F7D-4B32-A308-A982E85F2D67}","CREATOR":null,"CREATED":null,"EDITOR":"DCGIS","EDITED":1514588688000}},{"type":"Feature","id":15,"geometry":{"type":"Point","coordinates":[-76.948651759581367,38.923795990795668]},"properties":{"CREATION_DT":1297918800000,"NARRATIVE":" ","LOCATION_DESCRIPTION":"About 100 ft. SE of the South corner of a series of raised monuments on the 18th block of Fort Lincoln Cemetery, Cottage City, MD. West of the Garden of the Crucifixion, along the boundary fence.","STONE_NUM":"NE7","PIC_LINK":"http://octo.dc.gov/sites/default/files/dc/sites/octo/featured_content/images/NE7_1.jpg","Z":25.262,"Z_FT":82.879999999999995,"GIS_ID":"BoundaryStonesPt_15","XCOORD":404452.85600000003,"YCOORD":139547.23989999999,"LATITUDE":38.923788199999997,"LONGITUDE":-76.948649489999994,"OBJECTID":15,"GLOBALID":"{74C2D185-9ED1-45FA-8D7D-814C88B905A7}","CREATOR":null,"CREATED":null,"EDITOR":"DCGIS","EDITED":1514588688000}},{"type":"Feature","id":16,"geometry":{"type":"Point","coordinates":[-77.145989710667692,38.913888917300135]},"properties":{"CREATION_DT":1299128400000,"NARRATIVE":" ","LOCATION_DESCRIPTION":"On the NE corner of 5298 Old Dominion Drive, Arl. VA.","STONE_NUM":"NW2","PIC_LINK":"http://octo.dc.gov/sites/default/files/dc/sites/octo/featured_content/images/NW2_1.jpg","Z":93.162000000000006,"Z_FT":305.65000000000003,"GIS_ID":"BoundaryStonesPt_16","XCOORD":387338.96000000002,"YCOORD":138456.34400000001,"LATITUDE":38.91388113,"LONGITUDE":-77.145987379999994,"OBJECTID":16,"GLOBALID":"{3BAEA793-41A7-48B9-B4DE-F5D784DF72A8}","CREATOR":null,"CREATED":null,"EDITOR":"DCGIS","EDITED":1514588688000}},{"type":"Feature","id":17,"geometry":{"type":"Point","coordinates":[-76.935485571897104,38.913490589679391]},"properties":{"CREATION_DT":1297918800000,"NARRATIVE":" ","LOCATION_DESCRIPTION":"About 500 ft. NE of intersection of Kenilworth and Eastern Ayes, behind a D.C. Public Housing Project, NE. ","STONE_NUM":"NE8","PIC_LINK":"http://octo.dc.gov/sites/default/files/dc/sites/octo/featured_content/images/NE8_2.jpg","Z":4.9380000000000006,"Z_FT":16.199999999999999,"GIS_ID":"BoundaryStonesPt_17","XCOORD":405595.36900000001,"YCOORD":138403.97899999999,"LATITUDE":38.913482799999997,"LONGITUDE":-76.935483309999995,"OBJECTID":17,"GLOBALID":"{F0768BAC-3CA5-4B10-9A11-10EA6661729A}","CREATOR":null,"CREATED":null,"EDITOR":"DCGIS","EDITED":1514588688000}},{"type":"Feature","id":18,"geometry":{"type":"Point","coordinates":[-77.159146686281332,38.903569318170703]},"properties":{"CREATION_DT":1298005200000,"NARRATIVE":" ","LOCATION_DESCRIPTION":"N corner of a back yard at 3607 Powhatan St., Arl., VA.","STONE_NUM":"NW1","PIC_LINK":"http://octo.dc.gov/sites/default/files/dc/sites/octo/featured_content/images/NW1_2.jpg","Z":130.595,"Z_FT":428.46000000000004,"GIS_ID":"BoundaryStonesPt_18","XCOORD":386195.90000000002,"YCOORD":137312.693,"LATITUDE":38.903561539999998,"LONGITUDE":-77.159144350000005,"OBJECTID":18,"GLOBALID":"{627EC3CB-C071-45ED-ABB4-2A4F30545275}","CREATOR":null,"CREATED":null,"EDITOR":"DCGIS","EDITED":1514588688000}},{"type":"Feature","id":19,"geometry":{"type":"Point","coordinates":[-76.922321812958359,38.903176694569986]},"properties":{"CREATION_DT":1297918800000,"NARRATIVE":" ","LOCATION_DESCRIPTION":"West corner of the front lawn at 919 Eastern Ave., NE.","STONE_NUM":"NE9","PIC_LINK":"http://octo.dc.gov/sites/default/files/dc/sites/octo/featured_content/images/NE9_2.jpg","Z":37.862000000000002,"Z_FT":124.22,"GIS_ID":"BoundaryStonesPt_19","XCOORD":406738.0024,"YCOORD":137259.94200000001,"LATITUDE":38.903168899999997,"LONGITUDE":-76.922319549999997,"OBJECTID":19,"GLOBALID":"{7DDA3F37-EABF-449B-BB05-657821BC23A2}","CREATOR":null,"CREATED":null,"EDITOR":"DCGIS","EDITED":1514588688000}},{"type":"Feature","id":20,"geometry":{"type":"Point","coordinates":[-77.172303474591615,38.893252906615693]},"properties":{"CREATION_DT":1299128400000,"NARRATIVE":" ","LOCATION_DESCRIPTION":"Andrew Ellicott Park, 2848 N. Arizona Street, Arl., VA","STONE_NUM":"WEST","PIC_LINK":"http://octo.dc.gov/sites/default/files/dc/sites/octo/featured_content/images/WEST_2.jpg","Z":104.48100000000001,"Z_FT":342.78500000000003,"GIS_ID":"BoundaryStonesPt_20","XCOORD":385052.527,"YCOORD":136169.56299999999,"LATITUDE":38.893245129999997,"LONGITUDE":-77.172301140000002,"OBJECTID":20,"GLOBALID":"{4E9D300D-3B50-4339-8105-756C709EFFEA}","CREATOR":null,"CREATED":null,"EDITOR":"DCGIS","EDITED":1514588688000}},{"type":"Feature","id":21,"geometry":{"type":"Point","coordinates":[-76.909167787995884,38.892868292610139]},"properties":{"CREATION_DT":1299042000000,"NARRATIVE":" ","LOCATION_DESCRIPTION":"About 100 ft. East of the intersection of Eastern and Southern Aves.","STONE_NUM":"EAST","PIC_LINK":"http://octo.dc.gov/sites/default/files/dc/sites/octo/featured_content/images/EAST_2.jpg","Z":28.624000000000002,"Z_FT":93.909999999999997,"GIS_ID":"BoundaryStonesPt_21","XCOORD":407880.12,"YCOORD":136116.68100000001,"LATITUDE":38.892860499999998,"LONGITUDE":-76.909165529999996,"OBJECTID":21,"GLOBALID":"{B33BEB30-CA66-4CA5-9647-05765D78507F}","CREATOR":null,"CREATED":null,"EDITOR":"DCGIS","EDITED":1514588688000}},{"type":"Feature","id":22,"geometry":{"type":"Point","coordinates":[-77.159092386949524,38.882950694859829]},"properties":{"CREATION_DT":1299128400000,"NARRATIVE":" ","LOCATION_DESCRIPTION":"A park along Van Buren Street, N of Columbia St., F.C., VA.","STONE_NUM":"SW9","PIC_LINK":"http://octo.dc.gov/sites/default/files/dc/sites/octo/featured_content/images/SW9_2.jpg","Z":85.009,"Z_FT":278.90000000000003,"GIS_ID":"BoundaryStonesPt_22","XCOORD":386196.62079999998,"YCOORD":135023.85860000001,"LATITUDE":38.882942919999998,"LONGITUDE":-77.159090050000003,"OBJECTID":22,"GLOBALID":"{2C78C78B-6C2C-4BC3-B6B8-F89FB7475CCC}","CREATOR":null,"CREATED":null,"EDITOR":"DCGIS","EDITED":1514588688000}},{"type":"Feature","id":23,"geometry":{"type":"Point","coordinates":[-76.92229572008263,38.882647834033556]},"properties":{"CREATION_DT":1299042000000,"NARRATIVE":" ","LOCATION_DESCRIPTION":"Opposite the end of D St., along Southern Ave., SE.","STONE_NUM":"SE1","PIC_LINK":"http://octo.dc.gov/sites/default/files/dc/sites/octo/featured_content/images/SE1_2.jpg","Z":61.920000000000002,"Z_FT":203.15000000000001,"GIS_ID":"BoundaryStonesPt_23","XCOORD":406742.20500000002,"YCOORD":134981.08000000002,"LATITUDE":38.882640049999999,"LONGITUDE":-76.922293460000006,"OBJECTID":23,"GLOBALID":"{0BF12036-1018-4E19-83B0-1AABDB606A0D}","CREATOR":null,"CREATED":null,"EDITOR":"DCGIS","EDITED":1514588688000}},{"type":"Feature","id":24,"geometry":{"type":"Point","coordinates":[-77.145947603850885,38.872678971613354]},"properties":{"CREATION_DT":1299128400000,"NARRATIVE":" ","LOCATION_DESCRIPTION":"About 120 ft. SE of a water tower in an apartment complex parking lot on the SE corner of John Marshall Dr. and Wilson Blvd., Falls Church, VA. ","STONE_NUM":"SW8","PIC_LINK":"http://octo.dc.gov/sites/default/files/dc/sites/octo/featured_content/images/SW8_2.jpg","Z":124.414,"Z_FT":408.18000000000001,"GIS_ID":"BoundaryStonesPt_24","XCOORD":387335.29830000002,"YCOORD":133881.71580000001,"LATITUDE":38.872671199999999,"LONGITUDE":-77.145945280000007,"OBJECTID":24,"GLOBALID":"{66DD3803-57D5-4ACB-B182-11FDB6216659}","CREATOR":null,"CREATED":null,"EDITOR":"DCGIS","EDITED":1514588688000}},{"type":"Feature","id":25,"geometry":{"type":"Point","coordinates":[-76.935426593768028,38.872418237693132]},"properties":{"CREATION_DT":1299042000000,"NARRATIVE":" ","LOCATION_DESCRIPTION":"N corner of a front lawn at 4345 Southern Ave., SE.","STONE_NUM":"SE2","PIC_LINK":"http://octo.dc.gov/sites/default/files/dc/sites/octo/featured_content/images/SE2_2.jpg","Z":88.27600000000001,"Z_FT":289.62,"GIS_ID":"BoundaryStonesPt_25","XCOORD":405603.70899999997,"YCOORD":133844.63010000001,"LATITUDE":38.872410449999997,"LONGITUDE":-76.935424330000004,"OBJECTID":25,"GLOBALID":"{B726377D-7511-471F-8A3C-E30F7C7D6767}","CREATOR":null,"CREATED":null,"EDITOR":"DCGIS","EDITED":1514588688000}},{"type":"Feature","id":26,"geometry":{"type":"Point","coordinates":[-77.132728263417064,38.862379823914274]},"properties":{"CREATION_DT":1299128400000,"NARRATIVE":" ","LOCATION_DESCRIPTION":"Along the SW fence on the grounds of Carlin Springs Elementary School, Arl., VA.","STONE_NUM":"SW7","PIC_LINK":"http://octo.dc.gov/sites/default/files/dc/sites/octo/featured_content/images/SW7_1.jpg","Z":81.778000000000006,"Z_FT":268.30000000000001,"GIS_ID":"BoundaryStonesPt_26","XCOORD":388480.77010000002,"YCOORD":132736.68479999999,"LATITUDE":38.862372049999998,"LONGITUDE":-77.13272594,"OBJECTID":26,"GLOBALID":"{90011988-0A74-4F39-92A8-821DA748C5D5}","CREATOR":null,"CREATED":null,"EDITOR":"DCGIS","EDITED":1514588688000}},{"type":"Feature","id":27,"geometry":{"type":"Point","coordinates":[-76.948573096856023,38.86216838243233]},"properties":{"CREATION_DT":1299042000000,"NARRATIVE":" ","LOCATION_DESCRIPTION":"Opposite 3908 Southern Ave., surrounded by ivy.","STONE_NUM":"SE3","PIC_LINK":"http://octo.dc.gov/sites/default/files/dc/sites/octo/featured_content/images/SE3_2.jpg","Z":74.231000000000009,"Z_FT":243.53999999999999,"GIS_ID":"BoundaryStonesPt_27","XCOORD":404463.5306,"YCOORD":132706.0963,"LATITUDE":38.862160600000003,"LONGITUDE":-76.948570829999994,"OBJECTID":27,"GLOBALID":"{C00B57F3-A64B-41E7-9518-0FE65083F9FC}","CREATOR":null,"CREATED":null,"EDITOR":"DCGIS","EDITED":1514588688000}},{"type":"Feature","id":28,"geometry":{"type":"Point","coordinates":[-77.119265901677949,38.851873112309903]},"properties":{"CREATION_DT":1298005200000,"NARRATIVE":" ","LOCATION_DESCRIPTION":"In the median strip of S. Jefferson Street between Columbia and Leesburg Pikes, Fairfax Co./Arlington, VA.","STONE_NUM":"SW6","PIC_LINK":"http://octo.dc.gov/sites/default/files/dc/sites/octo/featured_content/images/SW6_2.jpg","Z":64.974000000000004,"Z_FT":213.17000000000002,"GIS_ID":"BoundaryStonesPt_28","XCOORD":389647.63819999999,"YCOORD":131568.75260000001,"LATITUDE":38.851865340000003,"LONGITUDE":-77.119263579999995,"OBJECTID":28,"GLOBALID":"{3F997A8A-DF42-4955-BF4E-F87235D17398}","CREATOR":null,"CREATED":null,"EDITOR":"DCGIS","EDITED":1514588688000}},{"type":"Feature","id":29,"geometry":{"type":"Point","coordinates":[-77.106742397615221,38.842088952891736]},"properties":{"CREATION_DT":1299128400000,"NARRATIVE":" ","LOCATION_DESCRIPTION":"About 100 ft. NE of the intersection of King St. and Walter Reed Dr., on The N side of Walter Reed Dr., An., VA.","STONE_NUM":"SW5","PIC_LINK":"http://octo.dc.gov/sites/default/files/dc/sites/octo/featured_content/images/SW5_1.jpg","Z":37.401000000000003,"Z_FT":122.70700000000001,"GIS_ID":"BoundaryStonesPt_29","XCOORD":390733.43699999998,"YCOORD":130481.298,"LATITUDE":38.842081180000001,"LONGITUDE":-77.106740079999994,"OBJECTID":29,"GLOBALID":"{30A0D82D-6A45-435C-931C-AAA768E4B381}","CREATOR":null,"CREATED":null,"EDITOR":"DCGIS","EDITED":1514588688000}},{"type":"Feature","id":30,"geometry":{"type":"Point","coordinates":[-76.974841694099098,38.8416903023925]},"properties":{"CREATION_DT":1299042000000,"NARRATIVE":" ","LOCATION_DESCRIPTION":"Opposite the NE end of Valley Terrace, along Southern Ave., Next to a parking lot for the Southern Ave. Metro stop, SE.","STONE_NUM":"SE5","PIC_LINK":"http://octo.dc.gov/sites/default/files/dc/sites/octo/featured_content/images/SE5_2.jpg","Z":34.658999999999999,"Z_FT":113.71000000000001,"GIS_ID":"BoundaryStonesPt_30","XCOORD":402184.31,"YCOORD":130431.9279,"LATITUDE":38.84168253,"LONGITUDE":-76.974839419999995,"OBJECTID":30,"GLOBALID":"{2B4DF732-3FA3-4B95-9EA5-E8B18D53B97E}","CREATOR":null,"CREATED":null,"EDITOR":"DCGIS","EDITED":1514588688000}},{"type":"Feature","id":31,"geometry":{"type":"Point","coordinates":[-77.093189234802651,38.831550759895158]},"properties":{"CREATION_DT":1298005200000,"NARRATIVE":" ","LOCATION_DESCRIPTION":"Just off the sidewalk on King St., about 150 ft. NW of Wakefield St., Alex., VA.","STONE_NUM":"SW4","PIC_LINK":"http://octo.dc.gov/sites/default/files/dc/sites/octo/featured_content/images/SW4_1.jpg","Z":60.012,"Z_FT":196.89000000000001,"GIS_ID":"BoundaryStonesPt_31","XCOORD":391908.84950000001,"YCOORD":129310.19899999999,"LATITUDE":38.831542990000003,"LONGITUDE":-77.093186930000002,"OBJECTID":31,"GLOBALID":"{AD66CE91-AD96-48B6-9059-3B448DC7E976}","CREATOR":null,"CREATED":null,"EDITOR":"DCGIS","EDITED":1514588688000}},{"type":"Feature","id":32,"geometry":{"type":"Point","coordinates":[-76.987975577167859,38.831444949671258]},"properties":{"CREATION_DT":1299042000000,"NARRATIVE":" ","LOCATION_DESCRIPTION":"About 20 ft. West of the entrance to the Tribles Co., 901 Southern Ave., SE.","STONE_NUM":"SE6","PIC_LINK":"http://octo.dc.gov/sites/default/files/dc/sites/octo/featured_content/images/SE6_2.jpg","Z":58.509999999999998,"Z_FT":191.96000000000001,"GIS_ID":"BoundaryStonesPt_32","XCOORD":401044.24530000001,"YCOORD":129294.3916,"LATITUDE":38.831437180000002,"LONGITUDE":-76.987973299999993,"OBJECTID":32,"GLOBALID":"{15EA3B4F-7DE4-4F7B-9829-57330A9A739C}","CREATOR":null,"CREATED":null,"EDITOR":"DCGIS","EDITED":1514588688000}},{"type":"Feature","id":33,"geometry":{"type":"Point","coordinates":[-77.001098724725793,38.82120428263898]},"properties":{"CREATION_DT":1299042000000,"NARRATIVE":" ","LOCATION_DESCRIPTION":"About 25 ft. East of the intersection of Indian Head Hwy. and Southern Ave., SE. Just SE of the bridge going over Oxon Run on Indian Head Hwy.","STONE_NUM":"SE7","PIC_LINK":"http://octo.dc.gov/sites/default/files/dc/sites/octo/featured_content/images/SE7_2.jpg","Z":12.527000000000001,"Z_FT":41.100000000000001,"GIS_ID":"BoundaryStonesPt_33","XCOORD":399904.78450000001,"YCOORD":128157.54240000001,"LATITUDE":38.82119651,"LONGITUDE":-77.001096450000006,"OBJECTID":33,"GLOBALID":"{C446EA3F-2426-4829-BF45-3302E2A5D590}","CREATOR":null,"CREATED":null,"EDITOR":"DCGIS","EDITED":1514588688000}},{"type":"Feature","id":34,"geometry":{"type":"Point","coordinates":[-77.079322501296701,38.820660410902768]},"properties":{"CREATION_DT":1298005200000,"NARRATIVE":" ","LOCATION_DESCRIPTION":"North end of a parking lot of the First Baptist Church of Alexandria at 2932 King St., Alex., VA","STONE_NUM":"SW3","PIC_LINK":"http://octo.dc.gov/sites/default/files/dc/sites/octo/featured_content/images/SW3_2.jpg","Z":52.971000000000004,"Z_FT":173.78999999999999,"GIS_ID":"BoundaryStonesPt_34","XCOORD":393111.80660000001,"YCOORD":128100.1608,"LATITUDE":38.820652639999999,"LONGITUDE":-77.079320199999998,"OBJECTID":34,"GLOBALID":"{D9F77609-02E0-48EF-AEF1-6FB5B780E1C8}","CREATOR":null,"CREATED":null,"EDITOR":"DCGIS","EDITED":1514588688000}},{"type":"Feature","id":35,"geometry":{"type":"Point","coordinates":[-77.014252735546805,38.810927428023071]},"properties":{"CREATION_DT":1299042000000,"NARRATIVE":"STONE UNDER 4' OF WATER, COORDINATES APPROX.","LOCATION_DESCRIPTION":"SE corner of the D.C. Village Impound Lot, SW.","STONE_NUM":"SE8","PIC_LINK":"http://octo.dc.gov/sites/default/files/dc/sites/octo/featured_content/images/SE8_1.jpg","Z":5.29,"Z_FT":17.359999999999999,"GIS_ID":"BoundaryStonesPt_35","XCOORD":398762.31660000002,"YCOORD":127016.8414,"LATITUDE":38.810919660000003,"LONGITUDE":-77.014250450000006,"OBJECTID":35,"GLOBALID":"{32D89A1B-9504-4431-9FE4-E233A27DFA55}","CREATOR":null,"CREATED":null,"EDITOR":"DCGIS","EDITED":1514588688000}},{"type":"Feature","id":36,"geometry":{"type":"Point","coordinates":[-77.06264022516531,38.807600193367904]},"properties":{"CREATION_DT":1298005200000,"NARRATIVE":" ","LOCATION_DESCRIPTION":"On the sidewalk just West of 7 Russell Rd., Alex. VA.","STONE_NUM":"SW2","PIC_LINK":"http://octo.dc.gov/sites/default/files/dc/sites/octo/featured_content/images/SW2_2.jpg","Z":8.6620000000000008,"Z_FT":28.420000000000002,"GIS_ID":"BoundaryStonesPt_36","XCOORD":394559.50630000001,"YCOORD":126649.2671,"LATITUDE":38.80759243,"LONGITUDE":-77.062637929999994,"OBJECTID":36,"GLOBALID":"{D528ADD1-9D81-4FFB-AC21-B880BEA15CC9}","CREATOR":null,"CREATED":null,"EDITOR":"DCGIS","EDITED":1514588688000}},{"type":"Feature","id":37,"geometry":{"type":"Point","coordinates":[-77.023739488787328,38.803514420461852]},"properties":{"CREATION_DT":1299128400000,"NARRATIVE":" ","LOCATION_DESCRIPTION":"About 1000 ft. SW of the South end of Oxon Cove Bridge along Interstate 295, about 120 ft. East of the Potomac river bed.","STONE_NUM":"SE9","PIC_LINK":"http://octo.dc.gov/sites/default/files/dc/sites/octo/featured_content/images/SE9_1.jpg","Z":2.0409999999999999,"Z_FT":6.6960000000000006,"GIS_ID":"BoundaryStonesPt_37","XCOORD":397938.158,"YCOORD":126194.122,"LATITUDE":38.803506650000003,"LONGITUDE":-77.023737199999999,"OBJECTID":37,"GLOBALID":"{91D9434F-7C0D-4593-B8F5-2E49D562CE07}","CREATOR":null,"CREATED":null,"EDITOR":"DCGIS","EDITED":1514588688000}},{"type":"Feature","id":38,"geometry":{"type":"Point","coordinates":[-77.054395320838566,38.801251315937634]},"properties":{"CREATION_DT":1298005200000,"NARRATIVE":" ","LOCATION_DESCRIPTION":"On the NW corner of a lot at 1220 Wilkes Street, Alex. VA.","STONE_NUM":"SW1","PIC_LINK":"http://octo.dc.gov/sites/default/files/dc/sites/octo/featured_content/images/SW1_1.jpg","Z":8.9090000000000007,"Z_FT":29.23,"GIS_ID":"BoundaryStonesPt_38","XCOORD":395275.20669999998,"YCOORD":125944.0426,"LATITUDE":38.801243550000002,"LONGITUDE":-77.05439303,"OBJECTID":38,"GLOBALID":"{5262CCC2-91C5-4A13-A81B-36A88F08AF83}","CREATOR":null,"CREATED":null,"EDITOR":"DCGIS","EDITED":1514588688000}},{"type":"Feature","id":39,"geometry":{"type":"Point","coordinates":[-77.040588319062778,38.790346914335274]},"properties":{"CREATION_DT":1306900800000,"NARRATIVE":"Could not survey due to site being under construction. Stone wrapped in burlap & packed in sand.  Approximate coordinates (+/-0.4') obtained from AMT surveyor working for PCC at Woodrow Wilson Bridge ","LOCATION_DESCRIPTION":"Currently in seawall on the side of the Joint Point Lighthouse on Jones Point Park, Alexandria VA,  Site currently under construction (May, 2011) and stone may be moved.","STONE_NUM":"SOUTH","PIC_LINK":null,"Z":null,"Z_FT":null,"GIS_ID":"BoundaryStonesPt_39","XCOORD":396473.99930000002,"YCOORD":124732.9642,"LATITUDE":38.790339150000001,"LONGITUDE":-77.04058603,"OBJECTID":39,"GLOBALID":"{86EE8AA1-8C81-48B5-A032-2D974F7FF2B9}","CREATOR":null,"CREATED":null,"EDITOR":"DCGIS","EDITED":1514588688000}}]}