{
  "type": "Feature",
  "properties": { "name": "Meadowlark Botanical Gardens", "source": "OpenStreetMap way/121161567", "retrievedAt": "2026-08-05" },
  "geometry": { "type": "Polygon", "coordinates": [[[-77.2872806,38.9342138],[-77.2862281,38.9343499],[-77.2855509,38.9340117],[-77.2850845,38.9341579],[-77.284661,38.9343309],[-77.2833082,38.9346014],[-77.282139,38.9342781],[-77.2812962,38.9342115],[-77.2805794,38.9346095],[-77.2798891,38.9353962],[-77.2777596,38.9364504],[-77.2799361,38.9382555],[-77.2821257,38.9407648],[-77.2825792,38.9411997],[-77.2852511,38.9406575],[-77.2859326,38.9379026],[-77.2864954,38.935873],[-77.2863185,38.9356877],[-77.2868308,38.9352162],[-77.2872806,38.9342138]]]
  }
}
