{
"type": "FeatureCollection",
"name": "BeachAccess",
"crs": { "type": "name", "properties": { "name": "urn:ogc:def:crs:OGC:1.3:CRS84" } },
"features": [
{ "type": "Feature", "properties": { "OBJECTID": 1, "TYPE": "pedestrian", "LOCATION": "BAY POINT DRIVE", "X_COORD": 12161145.417, "Y_COORD": 3505934.97089, "Parking": null, "created_user": null, "created_date": null, "last_edited_user": null, "last_edited_date": null, "LUCITYID": null }, "geometry": { "type": "Point", "coordinates": [ -76.179430872999944, 36.928705713000056 ] } },
{ "type": "Feature", "properties": { "OBJECTID": 2, "TYPE": "pedestrian", "LOCATION": "23RD BAY STREET", "X_COORD": 12158128.4322, "Y_COORD": 3506374.4521900001, "Parking": null, "created_user": null, "created_date": null, "last_edited_user": null, "last_edited_date": null, "LUCITYID": null }, "geometry": { "type": "Point", "coordinates": [ -76.189712617999987, 36.930115655000066 ] } },
{ "type": "Feature", "properties": { "OBJECTID": 3, "TYPE": "vehicular", "LOCATION": "22ND BAY STREET", "X_COORD": 12157648.7039, "Y_COORD": 3506667.0330599998, "Parking": null, "created_user": null, "created_date": null, "last_edited_user": null, "last_edited_date": null, "LUCITYID": null }, "geometry": { "type": "Point", "coordinates": [ -76.191328914999985, 36.930951250000078 ] } },
{ "type": "Feature", "properties": { "OBJECTID": 4, "TYPE": "pedestrian", "LOCATION": "19 BAY STREET", "X_COORD": 12156601.959799999, "Y_COORD": 3506777.7657699999, "Parking": null, "created_user": null, "created_date": null, "last_edited_user": null, "last_edited_date": null, "LUCITYID": null }, "geometry": { "type": "Point", "coordinates": [ -76.194899795999959, 36.931325546000039 ] } },
{ "type": "Feature", "properties": { "OBJECTID": 5, "TYPE": "pedestrian", "LOCATION": "17TH BAY STREET", "X_COORD": 12155913.917099999, "Y_COORD": 3506903.06036, "Parking": null, "created_user": null, "created_date": null, "last_edited_user": null, "last_edited_date": null, "LUCITYID": null }, "geometry": { "type": "Point", "coordinates": [ -76.197242635999942, 36.931715695000037 ] } },
{ "type": "Feature", "properties": { "OBJECTID": 6, "TYPE": "pedestrian", "LOCATION": "15TH BAY STREET", "X_COORD": 12155248.179, "Y_COORD": 3507113.6079500001, "Parking": null, "created_user": null, "created_date": null, "last_edited_user": null, "last_edited_date": null, "LUCITYID": null }, "geometry": { "type": "Point", "coordinates": [ -76.199502103999976, 36.93233839100003 ] } },
{ "type": "Feature", "properties": { "OBJECTID": 7, "TYPE": "pedestrian", "LOCATION": "13TH BAY STREET", "X_COORD": 12154562.9749, "Y_COORD": 3507278.9732, "Parking": null, "created_user": null, "created_date": null, "last_edited_user": null, "last_edited_date": null, "LUCITYID": null }, "geometry": { "type": "Point", "coordinates": [ -76.201831950999974, 36.93283828400007 ] } },
{ "type": "Feature", "properties": { "OBJECTID": 8, "TYPE": "vehicular", "LOCATION": "11TH BAY STREET", "X_COORD": 12153936.0748, "Y_COORD": 3507559.9507300002, "Parking": null, "created_user": null, "created_date": null, "last_edited_user": null, "last_edited_date": null, "LUCITYID": null }, "geometry": { "type": "Point", "coordinates": [ -76.20395278899997, 36.93365168400004 ] } },
{ "type": "Feature", "properties": { "OBJECTID": 9, "TYPE": "pedestrian", "LOCATION": "7TH BAY STREET", "X_COORD": 12152603.235200001, "Y_COORD": 3507937.0244, "Parking": null, "created_user": null, "created_date": null, "last_edited_user": null, "last_edited_date": null, "LUCITYID": null }, "geometry": { "type": "Point", "coordinates": [ -76.208480304999966, 36.934775992000027 ] } },
{ "type": "Feature", "properties": { "OBJECTID": 10, "TYPE": "pedestrian", "LOCATION": "3RD BAY STREET", "X_COORD": 12151285.260299999, "Y_COORD": 3508328.7923300001, "Parking": null, "created_user": null, "created_date": null, "last_edited_user": null, "last_edited_date": null, "LUCITYID": null }, "geometry": { "type": "Point", "coordinates": [ -76.212955893999947, 36.935939483000027 ] } },
{ "type": "Feature", "properties": { "OBJECTID": 11, "TYPE": "vehicular", "LOCATION": "5TH BAY STREET", "X_COORD": 12151912.283, "Y_COORD": 3508046.7681399998, "Parking": null, "created_user": null, "created_date": null, "last_edited_user": null, "last_edited_date": null, "LUCITYID": null }, "geometry": { "type": "Point", "coordinates": [ -76.210834562999935, 36.935123363000059 ] } },
{ "type": "Feature", "properties": { "OBJECTID": 12, "TYPE": "vehicular", "LOCATION": "1ST BAY STREET", "X_COORD": 12150627.9991, "Y_COORD": 3508525.3457999998, "Parking": null, "created_user": null, "created_date": null, "last_edited_user": null, "last_edited_date": null, "LUCITYID": null }, "geometry": { "type": "Point", "coordinates": [ -76.215187778999962, 36.936522889000059 ] } },
{ "type": "Feature", "properties": { "OBJECTID": 13, "TYPE": "pedestrian", "LOCATION": "INLET ROAD", "X_COORD": 12149573.3544, "Y_COORD": 3508906.2025100002, "Parking": null, "created_user": null, "created_date": null, "last_edited_user": null, "last_edited_date": null, "LUCITYID": null }, "geometry": { "type": "Point", "coordinates": [ -76.218763732999946, 36.937638692000064 ] } },
{ "type": "Feature", "properties": { "OBJECTID": 14, "TYPE": "pedestrian", "LOCATION": "CAPE VIEW AVENUE", "X_COORD": 12148531.255799999, "Y_COORD": 3509168.10433, "Parking": null, "created_user": null, "created_date": null, "last_edited_user": null, "last_edited_date": null, "LUCITYID": null }, "geometry": { "type": "Point", "coordinates": [ -76.222306696999965, 36.938426929000059 ] } },
{ "type": "Feature", "properties": { "OBJECTID": 15, "TYPE": "pedestrian", "LOCATION": "GROVE AVENUE", "X_COORD": 12147555.3928, "Y_COORD": 3509548.4847499998, "Parking": null, "created_user": null, "created_date": null, "last_edited_user": null, "last_edited_date": null, "LUCITYID": null }, "geometry": { "type": "Point", "coordinates": [ -76.225613399999986, 36.939535997000064 ] } },
{ "type": "Feature", "properties": { "OBJECTID": 16, "TYPE": "pedestrian", "LOCATION": "BEAUMONT STREET", "X_COORD": 12146632.8292, "Y_COORD": 3510111.00789, "Parking": null, "created_user": null, "created_date": null, "last_edited_user": null, "last_edited_date": null, "LUCITYID": null }, "geometry": { "type": "Point", "coordinates": [ -76.228722882999989, 36.941141579000032 ] } },
{ "type": "Feature", "properties": { "OBJECTID": 17, "TYPE": "vehicular", "LOCATION": "BEAUMONT STREET", "X_COORD": 12146621.1686, "Y_COORD": 3510111.7529699998, "Parking": null, "created_user": null, "created_date": null, "last_edited_user": null, "last_edited_date": null, "LUCITYID": null }, "geometry": { "type": "Point", "coordinates": [ -76.228762709999955, 36.941144395000038 ] } },
{ "type": "Feature", "properties": { "OBJECTID": 18, "TYPE": "pedestrian", "LOCATION": "STURGIS STREET", "X_COORD": 12145498.8036, "Y_COORD": 3510631.0887799999, "Parking": null, "created_user": null, "created_date": null, "last_edited_user": null, "last_edited_date": null, "LUCITYID": null }, "geometry": { "type": "Point", "coordinates": [ -76.232559359999982, 36.942644491000067 ] } },
{ "type": "Feature", "properties": { "OBJECTID": 19, "TYPE": "pedestrian", "LOCATION": "BEACH VIEW STREET", "X_COORD": 12144623.8071, "Y_COORD": 3511216.8417400001, "Parking": null, "created_user": null, "created_date": null, "last_edited_user": null, "last_edited_date": null, "LUCITYID": null }, "geometry": { "type": "Point", "coordinates": [ -76.235504489999983, 36.94431054100005 ] } },
{ "type": "Feature", "properties": { "OBJECTID": 20, "TYPE": "vehicular", "LOCATION": "WARWICK AVENUE", "X_COORD": 12144123.3957, "Y_COORD": 3511667.20206, "Parking": null, "created_user": null, "created_date": null, "last_edited_user": null, "last_edited_date": null, "LUCITYID": null }, "geometry": { "type": "Point", "coordinates": [ -76.237179409999953, 36.945580101000076 ] } },
{ "type": "Feature", "properties": { "OBJECTID": 21, "TYPE": "pedestrian", "LOCATION": "ATLANS STREET", "X_COORD": 12143606.1503, "Y_COORD": 3511963.07381, "Parking": null, "created_user": null, "created_date": null, "last_edited_user": null, "last_edited_date": null, "LUCITYID": null }, "geometry": { "type": "Point", "coordinates": [ -76.238924634999989, 36.946426548000034 ] } },
{ "type": "Feature", "properties": { "OBJECTID": 22, "TYPE": "vehicular", "LOCATION": "CHESAPEAKE STREET", "X_COORD": 12143225.615599999, "Y_COORD": 3512354.19918, "Parking": null, "created_user": null, "created_date": null, "last_edited_user": null, "last_edited_date": null, "LUCITYID": null }, "geometry": { "type": "Point", "coordinates": [ -76.240194405999944, 36.947525531000053 ] } },
{ "type": "Feature", "properties": { "OBJECTID": 23, "TYPE": "vehicular", "LOCATION": "COMMUNITY BEACH", "X_COORD": 12142135.477499999, "Y_COORD": 3513135.0729100001, "Parking": null, "created_user": null, "created_date": null, "last_edited_user": null, "last_edited_date": null, "LUCITYID": null }, "geometry": { "type": "Point", "coordinates": [ -76.243859960999941, 36.949741279000079 ] } },
{ "type": "Feature", "properties": { "OBJECTID": 24, "TYPE": "pedestrian", "LOCATION": "COMMUNITY BEACH", "X_COORD": 12142042.905300001, "Y_COORD": 3513241.7115000002, "Parking": null, "created_user": null, "created_date": null, "last_edited_user": null, "last_edited_date": null, "LUCITYID": null }, "geometry": { "type": "Point", "coordinates": [ -76.244167944999958, 36.950040165000075 ] } },
{ "type": "Feature", "properties": { "OBJECTID": 25, "TYPE": "pedestrian", "LOCATION": "COMMUNITY BEACH", "X_COORD": 12141971.504799999, "Y_COORD": 3513287.75758, "Parking": null, "created_user": null, "created_date": null, "last_edited_user": null, "last_edited_date": null, "LUCITYID": null }, "geometry": { "type": "Point", "coordinates": [ -76.244408452999949, 36.950171285000067 ] } },
{ "type": "Feature", "properties": { "OBJECTID": 26, "TYPE": "pedestrian", "LOCATION": "COMMUNITY BEACH", "X_COORD": 12141885.714299999, "Y_COORD": 3513348.3509900002, "Parking": null, "created_user": null, "created_date": null, "last_edited_user": null, "last_edited_date": null, "LUCITYID": null }, "geometry": { "type": "Point", "coordinates": [ -76.244697002999942, 36.95034329300006 ] } },
{ "type": "Feature", "properties": { "OBJECTID": 27, "TYPE": "vehicular", "LOCATION": "COMMUNITY BEACH", "X_COORD": 12141696.297700001, "Y_COORD": 3513476.3088799999, "Parking": null, "created_user": null, "created_date": null, "last_edited_user": null, "last_edited_date": null, "LUCITYID": null }, "geometry": { "type": "Point", "coordinates": [ -76.24533457299998, 36.950707068000042 ] } },
{ "type": "Feature", "properties": { "OBJECTID": 28, "TYPE": "pedestrian", "LOCATION": "COMMUNITY BEACH", "X_COORD": 12141547.820699999, "Y_COORD": 3513581.3769100001, "Parking": null, "created_user": null, "created_date": null, "last_edited_user": null, "last_edited_date": null, "LUCITYID": null }, "geometry": { "type": "Point", "coordinates": [ -76.245833956999945, 36.951005304000034 ] } },
{ "type": "Feature", "properties": { "OBJECTID": 29, "TYPE": "pedestrian", "LOCATION": "SHIP WATCH ROAD", "X_COORD": 12141500.662, "Y_COORD": 3513736.2803400001, "Parking": null, "created_user": null, "created_date": null, "last_edited_user": null, "last_edited_date": null, "LUCITYID": null }, "geometry": { "type": "Point", "coordinates": [ -76.245982640999955, 36.951433734000034 ] } },
{ "type": "Feature", "properties": { "OBJECTID": 30, "TYPE": "pedestrian", "LOCATION": "HAMMETT PARKWAY", "X_COORD": 12141157.907600001, "Y_COORD": 3514022.27061, "Parking": null, "created_user": null, "created_date": null, "last_edited_user": null, "last_edited_date": null, "LUCITYID": null }, "geometry": { "type": "Point", "coordinates": [ -76.247131926999941, 36.952241482000034 ] } },
{ "type": "Feature", "properties": { "OBJECTID": 31, "TYPE": "pedestrian", "LOCATION": "SEABREEZE ROAD", "X_COORD": 12140791.569, "Y_COORD": 3514340.7762099998, "Parking": null, "created_user": null, "created_date": null, "last_edited_user": null, "last_edited_date": null, "LUCITYID": null }, "geometry": { "type": "Point", "coordinates": [ -76.248359271999959, 36.953140046000044 ] } },
{ "type": "Feature", "properties": { "OBJECTID": 32, "TYPE": "pedestrian", "LOCATION": "OV BEACH PARK", "X_COORD": 12140533.810900001, "Y_COORD": 3514623.76168, "Parking": null, "created_user": null, "created_date": null, "last_edited_user": null, "last_edited_date": null, "LUCITYID": null }, "geometry": { "type": "Point", "coordinates": [ -76.249218052999936, 36.953933956000071 ] } },
{ "type": "Feature", "properties": { "OBJECTID": 33, "TYPE": "pedestrian", "LOCATION": "OV BEACH PARK", "X_COORD": 12139898.3894, "Y_COORD": 3515129.57877, "Parking": null, "created_user": null, "created_date": null, "last_edited_user": null, "last_edited_date": null, "LUCITYID": null }, "geometry": { "type": "Point", "coordinates": [ -76.251350817999935, 36.955364428000053 ] } },
{ "type": "Feature", "properties": { "OBJECTID": 34, "TYPE": "pedestrian", "LOCATION": "OV BEACH PARK", "X_COORD": 12139717.7597, "Y_COORD": 3515260.6043099998, "Parking": null, "created_user": null, "created_date": null, "last_edited_user": null, "last_edited_date": null, "LUCITYID": null }, "geometry": { "type": "Point", "coordinates": [ -76.251958147999972, 36.95573601600006 ] } },
{ "type": "Feature", "properties": { "OBJECTID": 35, "TYPE": "pedestrian", "LOCATION": "OV BEACH PARK", "X_COORD": 12139523.584799999, "Y_COORD": 3515423.6400799998, "Parking": null, "created_user": null, "created_date": null, "last_edited_user": null, "last_edited_date": null, "LUCITYID": null }, "geometry": { "type": "Point", "coordinates": [ -76.252609219999954, 36.956196381000041 ] } },
{ "type": "Feature", "properties": { "OBJECTID": 36, "TYPE": "pedestrian", "LOCATION": "SARAH CONSTANT BEACH", "X_COORD": 12138238.7423, "Y_COORD": 3516235.7061299998, "Parking": null, "created_user": null, "created_date": null, "last_edited_user": null, "last_edited_date": null, "LUCITYID": null }, "geometry": { "type": "Point", "coordinates": [ -76.256939213999942, 36.958510097000044 ] } },
{ "type": "Feature", "properties": { "OBJECTID": 37, "TYPE": "vehicular", "LOCATION": "SARAH CONSTANT BEACH", "X_COORD": 12138038.2939, "Y_COORD": 3516348.1435099998, "Parking": null, "created_user": null, "created_date": null, "last_edited_user": null, "last_edited_date": null, "LUCITYID": null }, "geometry": { "type": "Point", "coordinates": [ -76.257615918999988, 36.958831909000025 ] } },
{ "type": "Feature", "properties": { "OBJECTID": 38, "TYPE": "pedestrian", "LOCATION": "SARAH CONSTANT BEACH", "X_COORD": 12137937.660399999, "Y_COORD": 3516439.9771099999, "Parking": null, "created_user": null, "created_date": null, "last_edited_user": null, "last_edited_date": null, "LUCITYID": null }, "geometry": { "type": "Point", "coordinates": [ -76.257952779999982, 36.959090632000027 ] } },
{ "type": "Feature", "properties": { "OBJECTID": 39, "TYPE": "pedestrian", "LOCATION": "SARAH CONSTANT BEACH", "X_COORD": 12137839.9113, "Y_COORD": 3516512.3883699998, "Parking": null, "created_user": null, "created_date": null, "last_edited_user": null, "last_edited_date": null, "LUCITYID": null }, "geometry": { "type": "Point", "coordinates": [ -76.258281350999937, 36.95929583700007 ] } },
{ "type": "Feature", "properties": { "OBJECTID": 40, "TYPE": "vehicular", "LOCATION": "4TH VIEW STREET", "X_COORD": 12137241.3961, "Y_COORD": 3516855.8528200001, "Parking": null, "created_user": null, "created_date": null, "last_edited_user": null, "last_edited_date": null, "LUCITYID": null }, "geometry": { "type": "Point", "coordinates": [ -76.260301338999966, 36.960277947000066 ] } },
{ "type": "Feature", "properties": { "OBJECTID": 41, "TYPE": "pedestrian", "LOCATION": "6TH VIEW STREET", "X_COORD": 12135603.5901, "Y_COORD": 3517801.11938, "Parking": null, "created_user": null, "created_date": null, "last_edited_user": null, "last_edited_date": null, "LUCITYID": null }, "geometry": { "type": "Point", "coordinates": [ -76.265828763999934, 36.96298007300004 ] } },
{ "type": "Feature", "properties": { "OBJECTID": 42, "TYPE": "pedestrian", "LOCATION": "8TH VIEW STREET", "X_COORD": 12133776.5999, "Y_COORD": 3518809.09852, "Parking": null, "created_user": null, "created_date": null, "last_edited_user": null, "last_edited_date": null, "LUCITYID": null }, "geometry": { "type": "Point", "coordinates": [ -76.27199888399997, 36.965866402000074 ] } },
{ "type": "Feature", "properties": { "OBJECTID": 43, "TYPE": "pedestrian", "LOCATION": "9TH VIEW STREET", "X_COORD": 12132874.6863, "Y_COORD": 3518961.9357699999, "Parking": null, "created_user": null, "created_date": null, "last_edited_user": null, "last_edited_date": null, "LUCITYID": null }, "geometry": { "type": "Point", "coordinates": [ -76.275072813999941, 36.966344487000072 ] } },
{ "type": "Feature", "properties": { "OBJECTID": 44, "TYPE": "pedestrian", "LOCATION": "11TH VIEW STREET", "X_COORD": 12131072.2257, "Y_COORD": 3519525.3646300002, "Parking": null, "created_user": null, "created_date": null, "last_edited_user": null, "last_edited_date": null, "LUCITYID": null }, "geometry": { "type": "Point", "coordinates": [ -76.281195382999954, 36.96800808100005 ] } },
{ "type": "Feature", "properties": { "OBJECTID": 45, "TYPE": "vehicular", "LOCATION": "11TH VIEW STREET", "X_COORD": 12131053.379799999, "Y_COORD": 3519526.4652999998, "Parking": null, "created_user": null, "created_date": null, "last_edited_user": null, "last_edited_date": null, "LUCITYID": null }, "geometry": { "type": "Point", "coordinates": [ -76.281259783999985, 36.968012320000071 ] } },
{ "type": "Feature", "properties": { "OBJECTID": 46, "TYPE": "pedestrian", "LOCATION": "12TH VIEW STREET", "X_COORD": 12130120.865800001, "Y_COORD": 3519554.0926899998, "Parking": null, "created_user": null, "created_date": null, "last_edited_user": null, "last_edited_date": null, "LUCITYID": null }, "geometry": { "type": "Point", "coordinates": [ -76.284448632999954, 36.968148328000041 ] } },
{ "type": "Feature", "properties": { "OBJECTID": 47, "TYPE": "vehicular", "LOCATION": "13TH VIEW STREET", "X_COORD": 12129056.2916, "Y_COORD": 3519523.2466099998, "Parking": null, "created_user": null, "created_date": null, "last_edited_user": null, "last_edited_date": null, "LUCITYID": null }, "geometry": { "type": "Point", "coordinates": [ -76.288094095999952, 36.968132189000073 ] } },
{ "type": "Feature", "properties": { "OBJECTID": 48, "TYPE": "pedestrian", "LOCATION": "13TH VIEW STREET", "X_COORD": 12129046.408199999, "Y_COORD": 3519520.01193, "Parking": null, "created_user": null, "created_date": null, "last_edited_user": null, "last_edited_date": null, "LUCITYID": null }, "geometry": { "type": "Point", "coordinates": [ -76.288128176999976, 36.96812394300008 ] } },
{ "type": "Feature", "properties": { "OBJECTID": 49, "TYPE": "pedestrian", "LOCATION": "15TH VIEW STREET", "X_COORD": 12127442.171599999, "Y_COORD": 3519597.91426, "Parking": null, "created_user": null, "created_date": null, "last_edited_user": null, "last_edited_date": null, "LUCITYID": null }, "geometry": { "type": "Point", "coordinates": [ -76.29361167199994, 36.968440951000048 ] } },
{ "type": "Feature", "properties": { "OBJECTID": 50, "TYPE": "pedestrian", "LOCATION": "24TH BAY STREET", "X_COORD": 12158405.409299999, "Y_COORD": 3506340.4583700001, "Parking": null, "created_user": null, "created_date": null, "last_edited_user": null, "last_edited_date": null, "LUCITYID": null }, "geometry": { "type": "Point", "coordinates": [ -76.188768144999983, 36.930003696000028 ] } },
{ "type": "Feature", "properties": { "OBJECTID": 51, "TYPE": "vehicular", "LOCATION": "21ST BAY STREET", "X_COORD": 12157276.5337, "Y_COORD": 3506678.5175200002, "Parking": null, "created_user": null, "created_date": null, "last_edited_user": null, "last_edited_date": null, "LUCITYID": null }, "geometry": { "type": "Point", "coordinates": [ -76.192600870999968, 36.931007773000033 ] } },
{ "type": "Feature", "properties": { "OBJECTID": 52, "TYPE": "pedestrian", "LOCATION": "25TH BAY STREET", "X_COORD": 12158817.5232, "Y_COORD": 3506245.0336000002, "Parking": null, "created_user": null, "created_date": null, "last_edited_user": null, "last_edited_date": null, "LUCITYID": null }, "geometry": { "type": "Point", "coordinates": [ -76.18736662799995, 36.929713962000051 ] } },
{ "type": "Feature", "properties": { "OBJECTID": 53, "TYPE": "pedestrian", "LOCATION": "28TH BAY STREET", "X_COORD": 12159830.702199999, "Y_COORD": 3506205.8160700002, "Parking": null, "created_user": null, "created_date": null, "last_edited_user": null, "last_edited_date": null, "LUCITYID": null }, "geometry": { "type": "Point", "coordinates": [ -76.183904655999982, 36.929538064000042 ] } },
{ "type": "Feature", "properties": { "OBJECTID": 54, "TYPE": "pedestrian", "LOCATION": "COVENTRY LANE", "X_COORD": 12160160.7872, "Y_COORD": 3506157.7012100001, "Parking": null, "created_user": null, "created_date": null, "last_edited_user": null, "last_edited_date": null, "LUCITYID": null }, "geometry": { "type": "Point", "coordinates": [ -76.182779745999937, 36.929383705000077 ] } },
{ "type": "Feature", "properties": { "OBJECTID": 55, "TYPE": "pedestrian", "LOCATION": "26TH BAY STREET", "X_COORD": 12159152.5964, "Y_COORD": 3506212.0854600002, "Parking": null, "created_user": null, "created_date": null, "last_edited_user": null, "last_edited_date": null, "LUCITYID": null }, "geometry": { "type": "Point", "coordinates": [ -76.186223375999987, 36.929600945000061 ] } },
{ "type": "Feature", "properties": { "OBJECTID": 56, "TYPE": "pedestrian", "LOCATION": "27TH BAY STREET", "X_COORD": 12159525.2896, "Y_COORD": 3506142.3822699999, "Parking": null, "created_user": null, "created_date": null, "last_edited_user": null, "last_edited_date": null, "LUCITYID": null }, "geometry": { "type": "Point", "coordinates": [ -76.184954542999947, 36.92938446200003 ] } }
]
}
