{
"type": "FeatureCollection",
"name": "BoatRampsAndKayakLaunches",
"crs": { "type": "name", "properties": { "name": "urn:ogc:def:crs:OGC:1.3:CRS84" } },
"features": [
{ "type": "Feature", "properties": { "OBJECTID_1": 1, "OBJECTID": 17, "PARKING": "No", "TYPE": "Kayak / Canoe", "LOCATION": "Town Point Park / Nauticus (Private)", "STATUS": "Existing", "ADDRESS": "201 Waterside Drive", "PUBLIC_": "Private (Nauticus)", "NOTES": " ", "ENTRY": "Dock Access", "X_COORD": 12128095.0053, "Y_COORD": 3474871.0199000002, "created_user": null, "created_date": null, "last_edited_user": null, "last_edited_date": null }, "geometry": { "type": "Point", "coordinates": [ -76.294953357999987, 36.845585271000061 ] } },
{ "type": "Feature", "properties": { "OBJECTID_1": 2, "OBJECTID": 16, "PARKING": "Yes", "TYPE": "Kayak / Canoe", "LOCATION": "Harbor Park Kayak Launch", "STATUS": "Existing", "ADDRESS": "1235 Water Street", "PUBLIC_": "Public", "NOTES": " ", "ENTRY": "Dock Access", "X_COORD": 12132217.2925, "Y_COORD": 3473573.2749000001, "created_user": null, "created_date": null, "last_edited_user": null, "last_edited_date": null }, "geometry": { "type": "Point", "coordinates": [ -76.280973878999987, 36.84175656900004 ] } },
{ "type": "Feature", "properties": { "OBJECTID_1": 3, "OBJECTID": 15, "PARKING": "No", "TYPE": "Kayak / Canoe", "LOCATION": "Grandy Village Learning Center (Private)", "STATUS": "Existing", "ADDRESS": "2971 Kimball Loop", "PUBLIC_": "Private (NHRA)", "NOTES": " ", "ENTRY": "Dock Access", "X_COORD": 12141063.499500001, "Y_COORD": 3473199.6889, "created_user": null, "created_date": null, "last_edited_user": null, "last_edited_date": null }, "geometry": { "type": "Point", "coordinates": [ -76.250783145999947, 36.840155805000052 ] } },
{ "type": "Feature", "properties": { "OBJECTID_1": 4, "OBJECTID": 4, "PARKING": "Yes", "TYPE": "Kayak / Canoe", "LOCATION": "Ocean View Beach Park", "STATUS": "Existing", "ADDRESS": "120 W Ocean View Avenue", "PUBLIC_": "Public", "NOTES": " ", "ENTRY": "Beach Access", "X_COORD": 12139933.177100001, "Y_COORD": 3515221.5929, "created_user": null, "created_date": null, "last_edited_user": null, "last_edited_date": null }, "geometry": { "type": "Point", "coordinates": [ -76.25122429299995, 36.955614807000075 ] } },
{ "type": "Feature", "properties": { "OBJECTID_1": 5, "OBJECTID": 3, "PARKING": "Yes", "TYPE": "Kayak / Canoe", "LOCATION": "Captain's Quarters", "STATUS": "Existing", "ADDRESS": "800 Little Bay Avenue", "PUBLIC_": "Public", "NOTES": " ", "ENTRY": "Beach Access", "X_COORD": 12133422.794500001, "Y_COORD": 3518317.7034900002, "created_user": null, "created_date": null, "last_edited_user": null, "last_edited_date": null }, "geometry": { "type": "Point", "coordinates": [ -76.273249239999984, 36.964540036000074 ] } },
{ "type": "Feature", "properties": { "OBJECTID_1": 6, "OBJECTID": 2, "PARKING": "Yes", "TYPE": "Boat Launch", "LOCATION": "Willoughby Boat Ramp", "STATUS": "Existing", "ADDRESS": "1275 Bayville Street", "PUBLIC_": "Public", "NOTES": " ", "ENTRY": "Dock Access", "X_COORD": 12129101.050899999, "Y_COORD": 3518162.7321199998, "created_user": null, "created_date": null, "last_edited_user": null, "last_edited_date": null }, "geometry": { "type": "Point", "coordinates": [ -76.288050034999969, 36.96439354000006 ] } },
{ "type": "Feature", "properties": { "OBJECTID_1": 7, "OBJECTID": 1, "PARKING": "Yes", "TYPE": "Kayak / Canoe", "LOCATION": "Community Beach", "STATUS": "Existing", "ADDRESS": "700 E Ocean View Avenue", "PUBLIC_": "Public", "NOTES": " ", "ENTRY": "Beach Access", "X_COORD": 12142059.2093, "Y_COORD": 3513538.21851, "created_user": null, "created_date": null, "last_edited_user": null, "last_edited_date": null }, "geometry": { "type": "Point", "coordinates": [ -76.244087920999959, 36.95085325000008 ] } },
{ "type": "Feature", "properties": { "OBJECTID_1": 8, "OBJECTID": 14, "PARKING": "Yes", "TYPE": "Kayak / Canoe", "LOCATION": "Poplar Hall Park", "STATUS": "Needs Repaired", "ADDRESS": "101 N Military Highway", "PUBLIC_": "Public - Damaged", "NOTES": " ", "ENTRY": "Dock Access", "X_COORD": 12150657.5381, "Y_COORD": 3474591.6779200002, "created_user": null, "created_date": null, "last_edited_user": null, "last_edited_date": null }, "geometry": { "type": "Point", "coordinates": [ -76.217893183999934, 36.843345600000077 ] } },
{ "type": "Feature", "properties": { "OBJECTID_1": 9, "OBJECTID": 52, "PARKING": "Yes", "TYPE": "Kayak / Canoe", "LOCATION": "Plum Point Park (planned 2019)", "STATUS": "Existing", "ADDRESS": "1001 W Brambleton Avenue", "PUBLIC_": "Public", "NOTES": "ADA Accessible", "ENTRY": "Dock Access - Roll-in entry", "X_COORD": 12124347.3585, "Y_COORD": 3480097.1525300001, "created_user": null, "created_date": null, "last_edited_user": "RFRASHE", "last_edited_date": "2024-03-26T20:40:36Z" }, "geometry": { "type": "Point", "coordinates": [ -76.307342422999966, 36.860175274000028 ] } },
{ "type": "Feature", "properties": { "OBJECTID_1": 10, "OBJECTID": 51, "PARKING": "Yes", "TYPE": "Boat Launch", "LOCATION": "Lake Whitehurst Boat Ramp", "STATUS": "Existing", "ADDRESS": "4200 Heutte Drive", "PUBLIC_": "Public", "NOTES": "No gas powered boats allowed", "ENTRY": "Dock Access", "X_COORD": 12159800.2907, "Y_COORD": 3498262.3411300001, "created_user": null, "created_date": null, "last_edited_user": null, "last_edited_date": null }, "geometry": { "type": "Point", "coordinates": [ -76.184675122999977, 36.907729055000061 ] } },
{ "type": "Feature", "properties": { "OBJECTID_1": 11, "OBJECTID": 50, "PARKING": "Yes", "TYPE": "Kayak / Canoe", "LOCATION": "Sarah Constanst Beach Park", "STATUS": "Existing", "ADDRESS": "324 W Ocean View Avenue", "PUBLIC_": "Public", "NOTES": " ", "ENTRY": "Beach Access", "X_COORD": 12138129.551100001, "Y_COORD": 3516508.9921300001, "created_user": null, "created_date": null, "last_edited_user": null, "last_edited_date": null }, "geometry": { "type": "Point", "coordinates": [ -76.257290599999976, 36.959267618000069 ] } },
{ "type": "Feature", "properties": { "OBJECTID_1": 12, "OBJECTID": 45, "PARKING": "No", "TYPE": "Kayak / Canoe", "LOCATION": "44th Street Kayak Launch (summer 2018)", "STATUS": "Planned", "ADDRESS": "4400 Colley Ave", "PUBLIC_": "Public", "NOTES": "ADA Accessible", "ENTRY": "Dock Access - Roll-in entry", "X_COORD": 12128004.1645, "Y_COORD": 3488995.4196799998, "created_user": null, "created_date": null, "last_edited_user": null, "last_edited_date": null }, "geometry": { "type": "Point", "coordinates": [ -76.294135946999972, 36.884374770000079 ] } },
{ "type": "Feature", "properties": { "OBJECTID_1": 13, "OBJECTID": 40, "PARKING": "Yes", "TYPE": "Kayak / Canoe", "LOCATION": "Lakewood Park", "STATUS": "Existing", "ADDRESS": "1612 Willow Wood Drive", "PUBLIC_": "Public", "NOTES": " ", "ENTRY": "Dock Access", "X_COORD": 12137062.3103, "Y_COORD": 3491840.8970900001, "created_user": null, "created_date": null, "last_edited_user": null, "last_edited_date": null }, "geometry": { "type": "Point", "coordinates": [ -76.26294274199995, 36.891602635000027 ] } },
{ "type": "Feature", "properties": { "OBJECTID_1": 14, "OBJECTID": 39, "PARKING": "Yes", "TYPE": "Kayak / Canoe", "LOCATION": "Barraud Park", "STATUS": "Existing", "ADDRESS": "1136 Vista Street", "PUBLIC_": "Public", "NOTES": " ", "ENTRY": "Dock Access", "X_COORD": 12136306.5965, "Y_COORD": 3483059.5269200001, "created_user": null, "created_date": null, "last_edited_user": null, "last_edited_date": null }, "geometry": { "type": "Point", "coordinates": [ -76.26623663099997, 36.86753952600003 ] } },
{ "type": "Feature", "properties": { "OBJECTID_1": 15, "OBJECTID": 36, "PARKING": "Yes", "TYPE": "Kayak / Canoe", "LOCATION": "LaVallette Ave Kayak Launch", "STATUS": "Existing", "ADDRESS": "279 LaValette Avenue", "PUBLIC_": "Public", "NOTES": "ADA Accessible", "ENTRY": "Dock Access - Roll-in entry", "X_COORD": 12133597.631899999, "Y_COORD": 3487849.3681000001, "created_user": null, "created_date": null, "last_edited_user": null, "last_edited_date": null }, "geometry": { "type": "Point", "coordinates": [ -76.275108566999961, 36.880867384000055 ] } },
{ "type": "Feature", "properties": { "OBJECTID_1": 16, "OBJECTID": 35, "PARKING": "Yes", "TYPE": "Boat Launch", "LOCATION": "Haven Creek Boat Ramp", "STATUS": "Existing", "ADDRESS": "300 Delaware Avenue", "PUBLIC_": "Public", "NOTES": " ", "ENTRY": "Dock Access", "X_COORD": 12131041.995300001, "Y_COORD": 3489027.7376700002, "created_user": null, "created_date": null, "last_edited_user": null, "last_edited_date": null }, "geometry": { "type": "Point", "coordinates": [ -76.283749345, 36.884268107000025 ] } },
{ "type": "Feature", "properties": { "OBJECTID_1": 17, "OBJECTID": 28, "PARKING": "Yes", "TYPE": "Kayak / Canoe", "LOCATION": "East Ocean View Community Center", "STATUS": "Existing", "ADDRESS": "9520 20th Bay Street", "PUBLIC_": "Public", "NOTES": " ", "ENTRY": "Beach Access", "X_COORD": 12156875.3597, "Y_COORD": 3504789.4492799998, "created_user": null, "created_date": null, "last_edited_user": null, "last_edited_date": null }, "geometry": { "type": "Point", "coordinates": [ -76.194130836999989, 36.925847711000074 ] } }
]
}
